NOAA 19                 
1 33591U 09005A   23025.11630066  .00000277  00000+0  17448-3 0  9992
2 33591  99.1218  68.6186 0012986 286.3394  73.6349 14.12674669719745
